{"type": "FeatureCollection", "features": [ {"type": "Feature", "properties": {"norad_id": 30081, "name": "FENGYUN 1C DEB", "group": "fengyun-1c-debris", "lat": -49.656984666412846, "lon": 145.0585215159497, "alt_km": 941.6148879855755, "timestamp": "2025-12-05T05:43:15.383155+00:00", "meta": {"OBJECT_NAME": "FENGYUN 1C DEB", "OBJECT_ID": "1999-025QJ", "EPOCH": "2025-12-04T13:44:34.305792", "MEAN_MOTION": 13.98261042, "ECCENTRICITY": 0.0076202, "INCLINATION": 98.9223, "RA_OF_ASC_NODE": 335.0697, "ARG_OF_PERICENTER": 1.6677, "MEAN_ANOMALY": 120.0298, "EPHEMERIS_TYPE": 0, "CLASSIFICATION_TYPE": "U", "NORAD_CAT_ID": 30081, "ELEMENT_SET_NO": 999, "REV_AT_EPOCH": 96240, "BSTAR": 0.00061281, "MEAN_MOTION_DOT": 8.53e-06, "MEAN_MOTION_DDOT": 0}, "tle": {"line1": "1 30081U 99025QJ  25338.57261928  .00000853  00000+0  61281-3 0  9994", "line2": "2 30081  98.9223 335.0697 0076202   1.6677 120.0298 13.98261042962403"}}, "geometry": {"type": "Point", "coordinates": [145.0585215159497, -49.656984666412846]}}, {"type": "Feature", "properties": {"norad_id": 30082, "name": "FENGYUN 1C DEB", "group": "fengyun-1c-debris", "lat": -31.85889484113295, "lon": 80.25702192822064, "alt_km": 483.3958369410757, "timestamp": "2025-12-05T05:43:15.383182+00:00", "meta": {"OBJECT_NAME": "FENGYUN 1C DEB", "OBJECT_ID": "1999-025QK", "EPOCH": "2025-12-04T06:35:19.677120", "MEAN_MOTION": 15.14489488, "ECCENTRICITY": 0.0069433, "INCLINATION": 98.8179, "RA_OF_ASC_NODE": 264.6771, "ARG_OF_PERICENTER": 194.9729, "MEAN_ANOMALY": 164.9444, "EPHEMERIS_TYPE": 0, "CLASSIFICATION_TYPE": "U", "NORAD_CAT_ID": 30082, "ELEMENT_SET_NO": 999, "REV_AT_EPOCH": 1165, "BSTAR": 0.0029398, "MEAN_MOTION_DOT": 0.00057781, "MEAN_MOTION_DDOT": 0}, "tle": {"line1": "1 30082U 99025QK  25338.27453330  .00057781  00000+0  29398-2 0  9996", "line2": "2 30082  98.8179 264.6771 0069433 194.9729 164.9444 15.14489488 11653"}}, "geometry": {"type": "Point", "coordinates": [80.25702192822064, -31.85889484113295]}}, {"type": "Feature", "properties": {"norad_id": 30086, "name": "FENGYUN 1C DEB", "group": "fengyun-1c-debris", "lat": -50.061617233825494, "lon": -177.7295753919109, "alt_km": 876.2308423965587, "timestamp": "2025-12-05T05:43:15.383209+00:00", "meta": {"OBJECT_NAME": "FENGYUN 1C DEB", "OBJECT_ID": "1999-025QP", "EPOCH": "2025-12-04T08:10:42.813120", "MEAN_MOTION": 14.03812866, "ECCENTRICITY": 0.0061588, "INCLINATION": 98.9108, "RA_OF_ASC_NODE": 12.1906, "ARG_OF_PERICENTER": 157.5307, "MEAN_ANOMALY": 218.8919, "EPHEMERIS_TYPE": 0, "CLASSIFICATION_TYPE": "U", "NORAD_CAT_ID": 30086, "ELEMENT_SET_NO": 999, "REV_AT_EPOCH": 96578, "BSTAR": 0.0005164, "MEAN_MOTION_DOT": 7.84e-06, "MEAN_MOTION_DDOT": 0}, "tle": {"line1": "1 30086U 99025QP  25338.34077330  .00000784  00000+0  51640-3 0  9997", "line2": "2 30086  98.9108  12.1906 0061588 157.5307 218.8919 14.03812866965781"}}, "geometry": {"type": "Point", "coordinates": [-177.7295753919109, -50.061617233825494]}}, {"type": "Feature", "properties": {"norad_id": 30087, "name": "FENGYUN 1C DEB", "group": "fengyun-1c-debris", "lat": -4.742635469511079, "lon": 12.389134487476573, "alt_km": 915.4038992413516, "timestamp": "2025-12-05T05:43:15.383223+00:00", "meta": {"OBJECT_NAME": "FENGYUN 1C DEB", "OBJECT_ID": "1999-025QQ", "EPOCH": "2025-12-04T15:15:45.749088", "MEAN_MOTION": 14.3567794, "ECCENTRICITY": 0.0230106, "INCLINATION": 98.3812, "RA_OF_ASC_NODE": 11.1023, "ARG_OF_PERICENTER": 145.4803, "MEAN_ANOMALY": 339.4394, "EPHEMERIS_TYPE": 0, "CLASSIFICATION_TYPE": "U", "NORAD_CAT_ID": 30087, "ELEMENT_SET_NO": 999, "REV_AT_EPOCH": 98579, "BSTAR": 0.00048758, "MEAN_MOTION_DOT": 1.854e-05, "MEAN_MOTION_DDOT": 0}, "tle": {"line1": "1 30087U 99025QQ  25338.63594617  .00001854  00000+0  48758-3 0  9997", "line2": "2 30087  98.3812  11.1023 0230106 145.4803 339.4394 14.35677940985795"}}, "geometry": {"type": "Point", "coordinates": [12.389134487476573, -4.742635469511079]}}, {"type": "Feature", "properties": {"norad_id": 30088, "name": "FENGYUN 1C DEB", "group": "fengyun-1c-debris", "lat": -66.89144220500734, "lon": 123.6035174268113, "alt_km": 645.5838281193664, "timestamp": "2025-12-05T05:43:15.383234+00:00", "meta": {"OBJECT_NAME": "FENGYUN 1C DEB", "OBJECT_ID": "1999-025QR", "EPOCH": "2025-12-04T10:52:51.879072", "MEAN_MOTION": 14.35873692, "ECCENTRICITY": 0.0200823, "INCLINATION": 98.3531, "RA_OF_ASC_NODE": 322.9827, "ARG_OF_PERICENTER": 272.4074, "MEAN_ANOMALY": 241.3525, "EPHEMERIS_TYPE": 0, "CLASSIFICATION_TYPE": "U", "NORAD_CAT_ID": 30088, "ELEMENT_SET_NO": 999, "REV_AT_EPOCH": 98553, "BSTAR": 0.00090347, "MEAN_MOTION_DOT": 3.245e-05, "MEAN_MOTION_DDOT": 0}, "tle": {"line1": "1 30088U 99025QR  25338.45337823  .00003245  00000+0  90347-3 0  9999", "line2": "2 30088  98.3531 322.9827 0200823 272.4074 241.3525 14.35873692985534"}}, "geometry": {"type": "Point", "coordinates": [123.6035174268113, -66.89144220500734]}}, {"type": "Feature", "properties": {"norad_id": 30089, "name": "FENGYUN 1C DEB", "group": "fengyun-1c-debris", "lat": 69.33332101286109, "lon": -140.09671718541802, "alt_km": 833.430879472061, "timestamp": "2025-12-05T05:43:15.383245+00:00", "meta": {"OBJECT_NAME": "FENGYUN 1C DEB", "OBJECT_ID": "1999-025QS", "EPOCH": "2025-12-04T16:13:33.678336", "MEAN_MOTION": 14.30288991, "ECCENTRICITY": 0.0073068, "INCLINATION": 98.903, "RA_OF_ASC_NODE": 243.8826, "ARG_OF_PERICENTER": 233.7397, "MEAN_ANOMALY": 184.2385, "EPHEMERIS_TYPE": 0, "CLASSIFICATION_TYPE": "U", "NORAD_CAT_ID": 30089, "ELEMENT_SET_NO": 999, "REV_AT_EPOCH": 98364, "BSTAR": 0.00048119, "MEAN_MOTION_DOT": 1.238e-05, "MEAN_MOTION_DDOT": 0}, "tle": {"line1": "1 30089U 99025QS  25338.67608424  .00001238  00000+0  48119-3 0  9992", "line2": "2 30089  98.9030 243.8826 0073068 233.7397 184.2385 14.30288991983648"}}, "geometry": {"type": "Point", "coordinates": [-140.09671718541802, 69.33332101286109]}}, {"type": "Feature", "properties": {"norad_id": 30090, "name": "FENGYUN 1C DEB", "group": "fengyun-1c-debris", "lat": -0.7161600540467301, "lon": 151.85486868985387, "alt_km": 826.7500376535654, "timestamp": "2025-12-05T05:43:15.383255+00:00", "meta": {"OBJECT_NAME": "FENGYUN 1C DEB", "OBJECT_ID": "1999-025QT", "EPOCH": "2025-12-04T11:30:56.474784", "MEAN_MOTION": 14.29007156, "ECCENTRICITY": 0.0058127, "INCLINATION": 99.4092, "RA_OF_ASC_NODE": 150.9182, "ARG_OF_PERICENTER": 135.3073, "MEAN_ANOMALY": 284.4189, "EPHEMERIS_TYPE": 0, "CLASSIFICATION_TYPE": "U", "NORAD_CAT_ID": 30090, "ELEMENT_SET_NO": 999, "REV_AT_EPOCH": 98152, "BSTAR": 0.00057521, "MEAN_MOTION_DOT": 1.432e-05, "MEAN_MOTION_DDOT": 0}, "tle": {"line1": "1 30090U 99025QT  25338.47982031  .00001432  00000+0  57521-3 0  9994", "line2": "2 30090  99.4092 150.9182 0058127 135.3073 284.4189 14.29007156981524"}}, "geometry": {"type": "Point", "coordinates": [151.85486868985387, -0.7161600540467301]}}, {"type": "Feature", "properties": {"norad_id": 30092, "name": "FENGYUN 1C DEB", "group": "fengyun-1c-debris", "lat": 47.17851496872148, "lon": 148.42959138645634, "alt_km": 798.9113369793076, "timestamp": "2025-12-05T05:43:15.383266+00:00", "meta": {"OBJECT_NAME": "FENGYUN 1C DEB", "OBJECT_ID": "1999-025QV", "EPOCH": "2025-12-04T11:23:38.932224", "MEAN_MOTION": 14.39093092, "ECCENTRICITY": 0.0082613, "INCLINATION": 98.9225, "RA_OF_ASC_NODE": 157.3957, "ARG_OF_PERICENTER": 275.0297, "MEAN_ANOMALY": 138.4696, "EPHEMERIS_TYPE": 0, "CLASSIFICATION_TYPE": "U", "NORAD_CAT_ID": 30092, "ELEMENT_SET_NO": 999, "REV_AT_EPOCH": 98630, "BSTAR": 0.001169, "MEAN_MOTION_DOT": 3.714e-05, "MEAN_MOTION_DDOT": 0}, "tle": {"line1": "1 30092U 99025QV  25338.47475616  .00003714  00000+0  11690-2 0  9993", "line2": "2 30092  98.9225 157.3957 0082613 275.0297 138.4696 14.39093092986303"}}, "geometry": {"type": "Point", "coordinates": [148.42959138645634, 47.17851496872148]}}, {"type": "Feature", "properties": {"norad_id": 30093, "name": "FENGYUN 1C DEB", "group": "fengyun-1c-debris", "lat": 40.269244882234425, "lon": 41.09744461751149, "alt_km": 781.3908719544879, "timestamp": "2025-12-05T05:43:15.383276+00:00", "meta": {"OBJECT_NAME": "FENGYUN 1C DEB", "OBJECT_ID": "1999-025QW", "EPOCH": "2025-12-04T14:22:19.178976", "MEAN_MOTION": 14.43611518, "ECCENTRICITY": 0.0070653, "INCLINATION": 98.8683, "RA_OF_ASC_NODE": 212.8311, "ARG_OF_PERICENTER": 1.6685, "MEAN_ANOMALY": 55.0661, "EPHEMERIS_TYPE": 0, "CLASSIFICATION_TYPE": "U", "NORAD_CAT_ID": 30093, "ELEMENT_SET_NO": 999, "REV_AT_EPOCH": 98686, "BSTAR": 0.0019933, "MEAN_MOTION_DOT": 6.923e-05, "MEAN_MOTION_DDOT": 0}, "tle": {"line1": "1 30093U 99025QW  25338.59883309  .00006923  00000+0  19933-2 0  9992", "line2": "2 30093  98.8683 212.8311 0070653   1.6685  55.0661 14.43611518986868"}}, "geometry": {"type": "Point", "coordinates": [41.09744461751149, 40.269244882234425]}}, {"type": "Feature", "properties": {"norad_id": 30095, "name": "FENGYUN 1C DEB", "group": "fengyun-1c-debris", "lat": -49.647431147867394, "lon": -89.74660743396232, "alt_km": 549.538025288598, "timestamp": "2025-12-05T05:43:15.383287+00:00", "meta": {"OBJECT_NAME": "FENGYUN 1C DEB", "OBJECT_ID": "1999-025QY", "EPOCH": "2025-12-04T16:58:26.039712", "MEAN_MOTION": 14.81390284, "ECCENTRICITY": 0.0167973, "INCLINATION": 99.2201, "RA_OF_ASC_NODE": 258.621, "ARG_OF_PERICENTER": 357.6202, "MEAN_ANOMALY": 2.4189, "EPHEMERIS_TYPE": 0, "CLASSIFICATION_TYPE": "U", "NORAD_CAT_ID": 30095, "ELEMENT_SET_NO": 999, "REV_AT_EPOCH": 99216, "BSTAR": 0.0048178, "MEAN_MOTION_DOT": 0.00048323, "MEAN_MOTION_DDOT": 0}, "tle": {"line1": "1 30095U 99025QY  25338.70724583  .00048323  00000+0  48178-2 0  9998", "line2": "2 30095  99.2201 258.6210 0167973 357.6202   2.4189 14.81390284992165"}}, "geometry": {"type": "Point", "coordinates": [-89.74660743396232, -49.647431147867394]}}]}